IXPE                    
1 49954U 21121A   24042.91668981  .00006603  00000+0  49662-3 0  9992
2 49954   0.2289 249.2815 0009823 205.5527 238.3773 14.96457821  5345
